COSMOS 2251 DEB         
1 35905U 93036AUU 26064.28649346  .00010555  00000+0  77707-3 0  9999
2 35905  74.0317  43.0245 0084949 102.0037 259.0688 15.00530799898205
COSMOS 2251 DEB         
1 35959U 93036AUZ 26066.64125592  .00000408  00000+0  15437-3 0  9990
2 35959  74.0332 156.6345 0023108 222.1145 137.8232 14.34204014861456
COSMOS 2251 DEB         
1 35961U 93036AVB 26060.68942373  .00004081  00000+0  21300-2 0  9991
2 35961  73.9258  65.2630 0190505 340.3294  19.0559 14.05894038637914
COSMOS 2251 DEB         
1 35979U 93036AVV 26066.44495625  .00006783  00000+0  96652-3 0  9997
2 35979  74.0080  72.5158 0058958 187.6265 323.3591 14.75777364898824
COSMOS 2251 DEB         
1 35980U 93036AVW 26064.03524102  .00007392  00000+0  14994-2 0  9990
2 35980  73.9135 324.4577 0051117  81.2804 279.4146 14.60536492626877
COSMOS 2251 DEB         
1 35982U 93036AVY 26065.31050190  .00004385  00000+0  82799-3 0  9993
2 35982  74.0585 186.8714 0065713 233.7807 125.7275 14.63365454873889
COSMOS 2251 DEB         
1 35987U 93036AWD 26065.26952000  .00004233  00000+0  12338-2 0  9996
2 35987  74.0000 171.0818 0050118 277.6520  81.8946 14.43733721622703
COSMOS 2251 DEB         
1 35989U 93036AWF 26061.51866094  .00000581  00000+0  20336-3 0  9999
2 35989  74.0375 137.1171 0022796 206.1701 153.8303 14.37210901883253
COSMOS 2251 DEB         
1 35993U 93036AWK 26054.05408999  .00004484  00000+0  81887-3 0  9995
2 35993  74.0143 193.3750 0030174 358.7265   1.3821 14.65956500615029
COSMOS 2251 DEB         
1 35996U 93036AWN 26066.28218213  .00012336  00000+0  67551-3 0  9991
2 35996  74.0107 288.6129 0084239 355.2401   4.7980 15.11207911736029
COSMOS 2251 DEB         
1 35997U 93036AWP 26065.60793201  .00004259  00000+0  10622-2 0  9993
2 35997  74.0451  29.4714 0012372  87.1603 273.0974 14.51874084721018
COSMOS 2251 DEB         
1 36000U 93036AWS 26065.26972100  .00029108  00000+0  26285-2 0  9990
2 36000  73.9898 278.5868 0027660  11.1905 348.9887 14.95081314614168
COSMOS 2251 DEB         
1 36005U 93036AWX 26066.05120758  .00000593  00000+0  16533-3 0  9990
2 36005  74.0260 296.2426 0060056  51.5689 309.0839 14.47486350888049
COSMOS 2251 DEB         
1 36045U 93036AXG 26065.83954663  .00016402  00000+0  25460-2 0  9993
2 36045  73.7605 253.0153 0046933 253.1039 106.4983 14.72361007 96259
COSMOS 2251 DEB         
1 36046U 93036AXH 26054.98807073  .00002410  00000+0  43697-3 0  9997
2 36046  74.0112 135.3155 0058515 264.2313 276.4308 14.65767134650762
COSMOS 2251 DEB         
1 36047U 93036AXJ 26065.67794414  .00051367  00000+0  38673-2 0  9992
2 36047  74.0327 163.7984 0005299 249.2942 110.7678 15.02239517671975
